[{"OBJECT_NAME":"BEIDOU-3 G1 (C59)","OBJECT_ID":"2018-085A","EPOCH":"2026-02-01T22:42:42.922368","MEAN_MOTION":1.00272433,"ECCENTRICITY":0.00012745,"INCLINATION":2.7343,"RA_OF_ASC_NODE":101.347,"ARG_OF_PERICENTER":61.0264,"MEAN_ANOMALY":90.4886,"EPHEMERIS_TYPE":0,"CLASSIFICATION_TYPE":"U","NORAD_CAT_ID":43683,"ELEMENT_SET_NO":999,"REV_AT_EPOCH":2670,"BSTAR":0,"MEAN_MOTION_DOT":-2.89e-6,"MEAN_MOTION_DDOT":0},{"OBJECT_NAME":"BEIDOU-3 M17 (C36)","OBJECT_ID":"2018-093A","EPOCH":"2026-02-01T11:16:25.298400","MEAN_MOTION":1.86228293,"ECCENTRICITY":0.00062312,"INCLINATION":54.1737,"RA_OF_ASC_NODE":186.8994,"ARG_OF_PERICENTER":302.7049,"MEAN_ANOMALY":63.5349,"EPHEMERIS_TYPE":0,"CLASSIFICATION_TYPE":"U","NORAD_CAT_ID":43706,"ELEMENT_SET_NO":999,"REV_AT_EPOCH":4901,"BSTAR":0,"MEAN_MOTION_DOT":1.6e-7,"MEAN_MOTION_DDOT":0},{"OBJECT_NAME":"BEIDOU-3 M18 (C37)","OBJECT_ID":"2018-093B","EPOCH":"2026-02-01T20:37:18.723072","MEAN_MOTION":1.86226545,"ECCENTRICITY":0.00059176,"INCLINATION":54.1743,"RA_OF_ASC_NODE":186.8783,"ARG_OF_PERICENTER":350.1984,"MEAN_ANOMALY":9.7355,"EPHEMERIS_TYPE":0,"CLASSIFICATION_TYPE":"U","NORAD_CAT_ID":43707,"ELEMENT_SET_NO":999,"REV_AT_EPOCH":4901,"BSTAR":0,"MEAN_MOTION_DOT":1.4e-7,"MEAN_MOTION_DDOT":0},{"OBJECT_NAME":"BEIDOU-2 G8 (C01)","OBJECT_ID":"2019-027A","EPOCH":"2026-02-01T22:43:57.801792","MEAN_MOTION":1.00270003,"ECCENTRICITY":0.00091848,"INCLINATION":1.7904,"RA_OF_ASC_NODE":74.7836,"ARG_OF_PERICENTER":262.4376,"MEAN_ANOMALY":280.4219,"EPHEMERIS_TYPE":0,"CLASSIFICATION_TYPE":"U","NORAD_CAT_ID":44231,"ELEMENT_SET_NO":999,"REV_AT_EPOCH":2472,"BSTAR":0,"MEAN_MOTION_DOT":-2.58e-6,"MEAN_MOTION_DDOT":0},{"OBJECT_NAME":"BEIDOU-3 IGSO-2 (C39)","OBJECT_ID":"2019-035A","EPOCH":"2026-02-01T23:39:37.948032","MEAN_MOTION":1.00254931,"ECCENTRICITY":0.00381124,"INCLINATION":55.2336,"RA_OF_ASC_NODE":160.0508,"ARG_OF_PERICENTER":204.9093,"MEAN_ANOMALY":239.6669,"EPHEMERIS_TYPE":0,"CLASSIFICATION_TYPE":"U","NORAD_CAT_ID":44337,"ELEMENT_SET_NO":999,"REV_AT_EPOCH":2431,"BSTAR":0,"MEAN_MOTION_DOT":-1.65e-6,"MEAN_MOTION_DDOT":0},{"OBJECT_NAME":"BEIDOU-3 M24 (C46)","OBJECT_ID":"2019-061A","EPOCH":"2026-02-01T22:18:39.307968","MEAN_MOTION":1.86228814,"ECCENTRICITY":0.00091391,"INCLINATION":54.4014,"RA_OF_ASC_NODE":187.2885,"ARG_OF_PERICENTER":25.7089,"MEAN_ANOMALY":334.2822,"EPHEMERIS_TYPE":0,"CLASSIFICATION_TYPE":"U","NORAD_CAT_ID":44542,"ELEMENT_SET_NO":999,"REV_AT_EPOCH":4327,"BSTAR":0,"MEAN_MOTION_DOT":1.5e-7,"MEAN_MOTION_DDOT":0},{"OBJECT_NAME":"BEIDOU-3 M23 (C45)","OBJECT_ID":"2019-061B","EPOCH":"2026-01-30T15:18:59.846688","MEAN_MOTION":1.86227081,"ECCENTRICITY":0.00055639,"INCLINATION":54.4001,"RA_OF_ASC_NODE":187.3342,"ARG_OF_PERICENTER":23.7219,"MEAN_ANOMALY":152.4453,"EPHEMERIS_TYPE":0,"CLASSIFICATION_TYPE":"U","NORAD_CAT_ID":44543,"ELEMENT_SET_NO":999,"REV_AT_EPOCH":4323,"BSTAR":0,"MEAN_MOTION_DOT":3.6e-7,"MEAN_MOTION_DDOT":0},{"OBJECT_NAME":"BEIDOU-3 M22 (C44)","OBJECT_ID":"2019-078A","EPOCH":"2026-01-29T00:15:23.562432","MEAN_MOTION":1.86231886,"ECCENTRICITY":0.00067859,"INCLINATION":54.0631,"RA_OF_ASC_NODE":304.727,"ARG_OF_PERICENTER":29.9167,"MEAN_ANOMALY":330.1584,"EPHEMERIS_TYPE":0,"CLASSIFICATION_TYPE":"U","NORAD_CAT_ID":44793,"ELEMENT_SET_NO":999,"REV_AT_EPOCH":4205,"BSTAR":0,"MEAN_MOTION_DOT":-6.0e-7,"MEAN_MOTION_DDOT":0},{"OBJECT_NAME":"BEIDOU-3 M21 (C43)","OBJECT_ID":"2019-078B","EPOCH":"2026-01-31T20:01:20.754336","MEAN_MOTION":1.86227479,"ECCENTRICITY":0.00049665,"INCLINATION":54.0333,"RA_OF_ASC_NODE":304.5914,"ARG_OF_PERICENTER":24.3367,"MEAN_ANOMALY":335.7313,"EPHEMERIS_TYPE":0,"CLASSIFICATION_TYPE":"U","NORAD_CAT_ID":44794,"ELEMENT_SET_NO":999,"REV_AT_EPOCH":4211,"BSTAR":0,"MEAN_MOTION_DOT":-6.0e-7,"MEAN_MOTION_DDOT":0},{"OBJECT_NAME":"BEIDOU-3 M19 (C41)","OBJECT_ID":"2019-090A","EPOCH":"2026-02-01T03:19:13.437408","MEAN_MOTION":1.86231174,"ECCENTRICITY":0.00198668,"INCLINATION":56.4377,"RA_OF_ASC_NODE":67.2887,"ARG_OF_PERICENTER":288.7058,"MEAN_ANOMALY":111.4361,"EPHEMERIS_TYPE":0,"CLASSIFICATION_TYPE":"U","NORAD_CAT_ID":44864,"ELEMENT_SET_NO":999,"REV_AT_EPOCH":4170,"BSTAR":0,"MEAN_MOTION_DOT":-2.0e-7,"MEAN_MOTION_DDOT":0},{"OBJECT_NAME":"BEIDOU-3 M20 (C42)","OBJECT_ID":"2019-090B","EPOCH":"2026-02-01T17:54:25.544736","MEAN_MOTION":1.86231074,"ECCENTRICITY":0.00171452,"INCLINATION":56.4398,"RA_OF_ASC_NODE":67.3029,"ARG_OF_PERICENTER":300.274,"MEAN_ANOMALY":236.9632,"EPHEMERIS_TYPE":0,"CLASSIFICATION_TYPE":"U","NORAD_CAT_ID":44865,"ELEMENT_SET_NO":999,"REV_AT_EPOCH":4169,"BSTAR":0,"MEAN_MOTION_DOT":-2.1e-7,"MEAN_MOTION_DDOT":0},{"OBJECT_NAME":"BEIDOU-3 G2 (C60)","OBJECT_ID":"2020-017A","EPOCH":"2026-02-01T22:25:37.058880","MEAN_MOTION":1.00271814,"ECCENTRICITY":0.00026259,"INCLINATION":2.5942,"RA_OF_ASC_NODE":44.9839,"ARG_OF_PERICENTER":270.4808,"MEAN_ANOMALY":233.0786,"EPHEMERIS_TYPE":0,"CLASSIFICATION_TYPE":"U","NORAD_CAT_ID":45344,"ELEMENT_SET_NO":999,"REV_AT_EPOCH":2190,"BSTAR":0,"MEAN_MOTION_DOT":-1.5e-6,"MEAN_MOTION_DDOT":0},{"OBJECT_NAME":"BEIDOU-3 G3 (C61)","OBJECT_ID":"2020-040A","EPOCH":"2026-02-01T22:34:13.735200","MEAN_MOTION":1.00268618,"ECCENTRICITY":0.0004732,"INCLINATION":2.1151,"RA_OF_ASC_NODE":66.9811,"ARG_OF_PERICENTER":306.9374,"MEAN_ANOMALY":207.3143,"EPHEMERIS_TYPE":0,"CLASSIFICATION_TYPE":"U","NORAD_CAT_ID":45807,"ELEMENT_SET_NO":999,"REV_AT_EPOCH":2071,"BSTAR":0,"MEAN_MOTION_DOT":-3.64e-6,"MEAN_MOTION_DDOT":0},{"OBJECT_NAME":"BEIDOU-3 G4 (C62)","OBJECT_ID":"2023-066A","EPOCH":"2026-01-26T09:27:28.593216","MEAN_MOTION":1.00269231,"ECCENTRICITY":0.00015168,"INCLINATION":0.7213,"RA_OF_ASC_NODE":306.1415,"ARG_OF_PERICENTER":216.8774,"MEAN_ANOMALY":264.4347,"EPHEMERIS_TYPE":0,"CLASSIFICATION_TYPE":"U","NORAD_CAT_ID":56564,"ELEMENT_SET_NO":999,"REV_AT_EPOCH":997,"BSTAR":0,"MEAN_MOTION_DOT":-1.0e-6,"MEAN_MOTION_DDOT":0},{"OBJECT_NAME":"BEIDOU-3 M28 (C50)","OBJECT_ID":"2023-207A","EPOCH":"2026-01-31T21:53:23.267040","MEAN_MOTION":1.86229613,"ECCENTRICITY":0.00043228,"INCLINATION":55.6297,"RA_OF_ASC_NODE":66.9016,"ARG_OF_PERICENTER":291.9514,"MEAN_ANOMALY":68.0736,"EPHEMERIS_TYPE":0,"CLASSIFICATION_TYPE":"U","NORAD_CAT_ID":58654,"ELEMENT_SET_NO":999,"REV_AT_EPOCH":1430,"BSTAR":0,"MEAN_MOTION_DOT":-2.2e-7,"MEAN_MOTION_DDOT":0},{"OBJECT_NAME":"BEIDOU-3 M26 (C48)","OBJECT_ID":"2023-207B","EPOCH":"2026-02-01T05:54:56.782656","MEAN_MOTION":1.86229509,"ECCENTRICITY":0.00053477,"INCLINATION":55.6321,"RA_OF_ASC_NODE":66.8765,"ARG_OF_PERICENTER":277.8686,"MEAN_ANOMALY":82.1415,"EPHEMERIS_TYPE":0,"CLASSIFICATION_TYPE":"U","NORAD_CAT_ID":58655,"ELEMENT_SET_NO":999,"REV_AT_EPOCH":1429,"BSTAR":0,"MEAN_MOTION_DOT":-2.3e-7,"MEAN_MOTION_DDOT":0},{"OBJECT_NAME":"BEIDOU-3 M25 (C47)","OBJECT_ID":"2024-168B","EPOCH":"2026-02-01T05:34:56.333280","MEAN_MOTION":1.86229856,"ECCENTRICITY":0.00048142,"INCLINATION":54.5945,"RA_OF_ASC_NODE":306.9684,"ARG_OF_PERICENTER":311.0626,"MEAN_ANOMALY":156.5331,"EPHEMERIS_TYPE":0,"CLASSIFICATION_TYPE":"U","NORAD_CAT_ID":61186,"ELEMENT_SET_NO":999,"REV_AT_EPOCH":925,"BSTAR":0,"MEAN_MOTION_DOT":-6.5e-7,"MEAN_MOTION_DDOT":0}]
