BEIDOU-3 G1             
1 43683U 18085A   26032.94633012 -.00000289  00000+0  00000+0 0  9995
2 43683   2.7343 101.3470 0001274  61.0264  90.4886  1.00272433 26706
BEIDOU-3 M17            
1 43706U 18093A   26032.46973725  .00000016  00000+0  00000+0 0  9992
2 43706  54.1737 186.8994 0006231 302.7049  63.5349  1.86228293 49016
BEIDOU-3 M18            
1 43707U 18093B   26032.85924448  .00000014  00000+0  00000+0 0  9992
2 43707  54.1743 186.8783 0005917 350.1984   9.7355  1.86226545 49012
BEIDOU-2 G8             
1 44231U 19027A   26032.94719678 -.00000258  00000+0  00000+0 0  9991
2 44231   1.7904  74.7836 0009184 262.4376 280.4219  1.00270003 24728
BEIDOU-3 IGSO-2         
1 44337U 19035A   26032.98585588 -.00000165  00000+0  00000+0 0  9999
2 44337  55.2336 160.0508 0038112 204.9093 239.6669  1.00254931 24315
BEIDOU-3 M24            
1 44542U 19061A   26032.92962162  .00000015  00000+0  00000+0 0  9990
2 44542  54.4014 187.2885 0009139  25.7089 334.2822  1.86228814 43271
BEIDOU-3 M23            
1 44543U 19061B   26030.63819267  .00000036  00000+0  00000+0 0  9997
2 44543  54.4001 187.3342 0005563  23.7219 152.4453  1.86227081 43238
BEIDOU-3 M22            
1 44793U 19078A   26029.01068938 -.00000060  00000+0  00000+0 0  9991
2 44793  54.0631 304.7270 0006785  29.9167 330.1584  1.86231886 42059
BEIDOU-3 M21            
1 44794U 19078B   26031.83426799 -.00000060  00000+0  00000+0 0  9998
2 44794  54.0333 304.5914 0004966  24.3367 335.7313  1.86227479 42113
BEIDOU-3 M19            
1 44864U 19090A   26032.13834997 -.00000020  00000+0  00000+0 0  9993
2 44864  56.4377  67.2887 0019866 288.7058 111.4361  1.86231174 41708
BEIDOU-3 M20            
1 44865U 19090B   26032.74612899 -.00000021  00000+0  00000+0 0  9997
2 44865  56.4398  67.3029 0017145 300.2740 236.9632  1.86231074 41698
BEIDOU-3 G2             
1 45344U 20017A   26032.93445670 -.00000150  00000+0  00000+0 0  9996
2 45344   2.5942  44.9839 0002625 270.4808 233.0786  1.00271814 21900
BEIDOU-3 G3             
1 45807U 20040A   26032.94043675 -.00000364  00000+0  00000+0 0  9993
2 45807   2.1151  66.9811 0004732 306.9374 207.3143  1.00268618 20717
BEIDOU-3 G4             
1 56564U 23066A   26026.39408094 -.00000100  00000+0  00000+0 0  9996
2 56564   0.7213 306.1415 0001516 216.8774 264.4347  1.00269231  9978
BEIDOU-3 M28            
1 58654U 23207A   26031.91207485 -.00000022  00000+0  00000+0 0  9993
2 58654  55.6297  66.9016 0004322 291.9514  68.0736  1.86229613 14300
BEIDOU-3 M26            
1 58655U 23207B   26032.24649054 -.00000023  00000+0  00000+0 0  9994
2 58655  55.6321  66.8765 0005347 277.8686  82.1415  1.86229509 14293
BEIDOU-3 M25            
1 61186U 24168B   26032.23259645 -.00000065  00000+0  00000+0 0  9992
2 61186  54.5945 306.9684 0004814 311.0626 156.5331  1.86229856  9255
